STARLINK-5661           
1 55343U 23013N   26067.99242087 -.00000437  00000+0 -17247-4 0  9991
2 55343  43.0055 304.1967 0001746 251.6664 108.3988 15.02535792171608
2024-205C               
1 61896U 24205C   26067.20867002  .00012247  00000+0  67177-3 0  9995
2 61896  97.4204 141.0161 0044383 341.9375  18.0277 15.13448144 72971
