[{"OBJECT_NAME":"STARLINK-5661","OBJECT_ID":"2023-013N","EPOCH":"2026-03-08T23:49:05.163168","MEAN_MOTION":15.02535792,"ECCENTRICITY":0.00017466,"INCLINATION":43.0055,"RA_OF_ASC_NODE":304.1967,"ARG_OF_PERICENTER":251.6664,"MEAN_ANOMALY":108.3988,"EPHEMERIS_TYPE":0,"CLASSIFICATION_TYPE":"U","NORAD_CAT_ID":55343,"ELEMENT_SET_NO":999,"REV_AT_EPOCH":17160,"BSTAR":-1.7246585e-5,"MEAN_MOTION_DOT":-4.37e-6,"MEAN_MOTION_DDOT":0},{"OBJECT_NAME":"OBJECT C","OBJECT_ID":"2024-205C","EPOCH":"2026-03-08T05:00:29.089728","MEAN_MOTION":15.13448144,"ECCENTRICITY":0.00443832,"INCLINATION":97.4204,"RA_OF_ASC_NODE":141.0161,"ARG_OF_PERICENTER":341.9375,"MEAN_ANOMALY":18.0277,"EPHEMERIS_TYPE":0,"CLASSIFICATION_TYPE":"U","NORAD_CAT_ID":61896,"ELEMENT_SET_NO":999,"REV_AT_EPOCH":7297,"BSTAR":0.00067176952,"MEAN_MOTION_DOT":0.00012247,"MEAN_MOTION_DDOT":0}]
